STARLINK-1624           
1 46130U 20057P   23032.74102758 -.00000954  00000+0 -45149-4 0  9998
2 46130  53.0553 318.1328 0002134 105.2101 254.9125 15.06391977136672
STARLINK-1625           
1 46131U 20057Q   23033.15200468 -.00001284  00000+0 -67314-4 0  9997
2 46131  53.0555 336.2905 0001379  94.1882 265.9265 15.06394951136457
STARLINK-1630           
1 46132U 20057R   23033.12436078  .00000834  00000+0  74848-4 0  9991
2 46132  53.0555 356.4129 0001441 100.6797 259.4354 15.06398271136173
STARLINK-1637           
1 46133U 20057S   23033.05801110  .00000915  00000+0  80290-4 0  9995
2 46133  53.0520 316.7202 0001251  89.5160 270.5972 15.06400360136729
STARLINK-1638           
1 46134U 20057T   23033.06075402  .00004895  00000+0  34736-3 0  9998
2 46134  53.0539 316.6911 0001880  79.5718 280.5482 15.06395372136725
STARLINK-1639           
1 46135U 20057U   23033.14278581  .00000574  00000+0  57401-4 0  9996
2 46135  53.0527 316.3390 0001705  98.3795 261.7388 15.06403727136732
STARLINK-1643           
1 46136U 20057V   23033.12433751 -.00000631  00000+0 -23471-4 0  9993
2 46136  53.0550 346.3948 0002233  98.9055 261.2187 15.06395514136313
STARLINK-1586           
1 46137U 20057W   23033.14463581 -.00001815  00000+0 -10302-3 0  9993
2 46137  53.0558 336.3213 0001641  98.9067 261.2107 15.06391341136463
STARLINK-1590           
1 46138U 20057X   23033.14279060  .00000033  00000+0  21104-4 0  9993
2 46138  53.0552 356.3350 0001252 106.5807 253.5320 15.06398127136176
STARLINK-1594           
1 46140U 20057Z   23033.10224450  .00000364  00000+0  43333-4 0  9990
2 46140  53.0566 316.5091 0001505  93.3975 266.7186 15.06399352136733
STARLINK-1596           
1 46141U 20057AA  23033.14647673 -.00001267  00000+0 -66207-4 0  9991
2 46141  53.0561 316.3060 0001731  87.5746 272.5441 15.06395342136739
STARLINK-1597           
1 46142U 20057AB  23033.16490553  .00001080  00000+0  91409-4 0  9990
2 46142  53.0534 356.2367 0001564 106.0682 254.0479 15.06398739136170
STARLINK-1606           
1 46144U 20057AD  23033.12988970 -.00001022  00000+0 -49718-4 0  9997
2 46144  53.0559 336.3877 0001412  95.8599 264.2551 15.06395575136469
STARLINK-1608           
1 46146U 20057AF  23032.31344850  .00002004  00000+0  15338-3 0  9991
2 46146  53.0540   0.0546 0001468  94.0362 266.0795 15.06406398135396
STARLINK-1611           
1 46147U 20057AG  23033.15753402  .00001100  00000+0  92716-4 0  9994
2 46147  53.0546 356.2640 0001893  94.8815 265.2391 15.06399061136175
STARLINK-1616           
1 46148U 20057AH  23033.09671925  .00007666  00000+0  53297-3 0  9990
2 46148  53.0530 336.5417 0001030 108.4123 251.6978 15.06397722136441
STARLINK-1620           
1 46149U 20057AJ  23032.77878146  .00001430  00000+0  11491-3 0  9992
2 46149  53.0516 337.9578 0001430  91.6989 268.4164 15.06397198136402
