[{"OBJECT_NAME":"STARLINK-1624","OBJECT_ID":"2020-057P","EPOCH":"2023-02-01T17:47:04.782912","MEAN_MOTION":15.06391977,"ECCENTRICITY":0.0002134,"INCLINATION":53.0553,"RA_OF_ASC_NODE":318.1328,"ARG_OF_PERICENTER":105.2101,"MEAN_ANOMALY":254.9125,"EPHEMERIS_TYPE":0,"CLASSIFICATION_TYPE":"U","NORAD_CAT_ID":46130,"ELEMENT_SET_NO":999,"REV_AT_EPOCH":13667,"BSTAR":-4.5149e-5,"MEAN_MOTION_DOT":-9.54e-6,"MEAN_MOTION_DDOT":0},{"OBJECT_NAME":"STARLINK-1625","OBJECT_ID":"2020-057Q","EPOCH":"2023-02-02T03:38:53.204352","MEAN_MOTION":15.06394951,"ECCENTRICITY":0.0001379,"INCLINATION":53.0555,"RA_OF_ASC_NODE":336.2905,"ARG_OF_PERICENTER":94.1882,"MEAN_ANOMALY":265.9265,"EPHEMERIS_TYPE":0,"CLASSIFICATION_TYPE":"U","NORAD_CAT_ID":46131,"ELEMENT_SET_NO":999,"REV_AT_EPOCH":13645,"BSTAR":-6.7314e-5,"MEAN_MOTION_DOT":-1.284e-5,"MEAN_MOTION_DDOT":0},{"OBJECT_NAME":"STARLINK-1630","OBJECT_ID":"2020-057R","EPOCH":"2023-02-02T02:59:04.771392","MEAN_MOTION":15.06398271,"ECCENTRICITY":0.0001441,"INCLINATION":53.0555,"RA_OF_ASC_NODE":356.4129,"ARG_OF_PERICENTER":100.6797,"MEAN_ANOMALY":259.4354,"EPHEMERIS_TYPE":0,"CLASSIFICATION_TYPE":"U","NORAD_CAT_ID":46132,"ELEMENT_SET_NO":999,"REV_AT_EPOCH":13617,"BSTAR":7.4848e-5,"MEAN_MOTION_DOT":8.34e-6,"MEAN_MOTION_DDOT":0},{"OBJECT_NAME":"STARLINK-1637","OBJECT_ID":"2020-057S","EPOCH":"2023-02-02T01:23:32.159040","MEAN_MOTION":15.0640036,"ECCENTRICITY":0.0001251,"INCLINATION":53.052,"RA_OF_ASC_NODE":316.7202,"ARG_OF_PERICENTER":89.516,"MEAN_ANOMALY":270.5972,"EPHEMERIS_TYPE":0,"CLASSIFICATION_TYPE":"U","NORAD_CAT_ID":46133,"ELEMENT_SET_NO":999,"REV_AT_EPOCH":13672,"BSTAR":8.029e-5,"MEAN_MOTION_DOT":9.15e-6,"MEAN_MOTION_DDOT":0},{"OBJECT_NAME":"STARLINK-1638","OBJECT_ID":"2020-057T","EPOCH":"2023-02-02T01:27:29.147328","MEAN_MOTION":15.06395372,"ECCENTRICITY":0.000188,"INCLINATION":53.0539,"RA_OF_ASC_NODE":316.6911,"ARG_OF_PERICENTER":79.5718,"MEAN_ANOMALY":280.5482,"EPHEMERIS_TYPE":0,"CLASSIFICATION_TYPE":"U","NORAD_CAT_ID":46134,"ELEMENT_SET_NO":999,"REV_AT_EPOCH":13672,"BSTAR":0.00034736,"MEAN_MOTION_DOT":4.895e-5,"MEAN_MOTION_DDOT":0},{"OBJECT_NAME":"STARLINK-1639","OBJECT_ID":"2020-057U","EPOCH":"2023-02-02T03:25:36.693984","MEAN_MOTION":15.06403727,"ECCENTRICITY":0.0001705,"INCLINATION":53.0527,"RA_OF_ASC_NODE":316.339,"ARG_OF_PERICENTER":98.3795,"MEAN_ANOMALY":261.7388,"EPHEMERIS_TYPE":0,"CLASSIFICATION_TYPE":"U","NORAD_CAT_ID":46135,"ELEMENT_SET_NO":999,"REV_AT_EPOCH":13673,"BSTAR":5.7401e-5,"MEAN_MOTION_DOT":5.74e-6,"MEAN_MOTION_DDOT":0},{"OBJECT_NAME":"STARLINK-1643","OBJECT_ID":"2020-057V","EPOCH":"2023-02-02T02:59:02.760864","MEAN_MOTION":15.06395514,"ECCENTRICITY":0.0002233,"INCLINATION":53.055,"RA_OF_ASC_NODE":346.3948,"ARG_OF_PERICENTER":98.9055,"MEAN_ANOMALY":261.2187,"EPHEMERIS_TYPE":0,"CLASSIFICATION_TYPE":"U","NORAD_CAT_ID":46136,"ELEMENT_SET_NO":999,"REV_AT_EPOCH":13631,"BSTAR":-2.3471e-5,"MEAN_MOTION_DOT":-6.31e-6,"MEAN_MOTION_DDOT":0},{"OBJECT_NAME":"STARLINK-1586","OBJECT_ID":"2020-057W","EPOCH":"2023-02-02T03:28:16.533984","MEAN_MOTION":15.06391341,"ECCENTRICITY":0.0001641,"INCLINATION":53.0558,"RA_OF_ASC_NODE":336.3213,"ARG_OF_PERICENTER":98.9067,"MEAN_ANOMALY":261.2107,"EPHEMERIS_TYPE":0,"CLASSIFICATION_TYPE":"U","NORAD_CAT_ID":46137,"ELEMENT_SET_NO":999,"REV_AT_EPOCH":13646,"BSTAR":-0.00010302,"MEAN_MOTION_DOT":-1.815e-5,"MEAN_MOTION_DDOT":0},{"OBJECT_NAME":"STARLINK-1590","OBJECT_ID":"2020-057X","EPOCH":"2023-02-02T03:25:37.107840","MEAN_MOTION":15.06398127,"ECCENTRICITY":0.0001252,"INCLINATION":53.0552,"RA_OF_ASC_NODE":356.335,"ARG_OF_PERICENTER":106.5807,"MEAN_ANOMALY":253.532,"EPHEMERIS_TYPE":0,"CLASSIFICATION_TYPE":"U","NORAD_CAT_ID":46138,"ELEMENT_SET_NO":999,"REV_AT_EPOCH":13617,"BSTAR":2.1104e-5,"MEAN_MOTION_DOT":3.3e-7,"MEAN_MOTION_DDOT":0},{"OBJECT_NAME":"STARLINK-1594","OBJECT_ID":"2020-057Z","EPOCH":"2023-02-02T02:27:13.924800","MEAN_MOTION":15.06399352,"ECCENTRICITY":0.0001505,"INCLINATION":53.0566,"RA_OF_ASC_NODE":316.5091,"ARG_OF_PERICENTER":93.3975,"MEAN_ANOMALY":266.7186,"EPHEMERIS_TYPE":0,"CLASSIFICATION_TYPE":"U","NORAD_CAT_ID":46140,"ELEMENT_SET_NO":999,"REV_AT_EPOCH":13673,"BSTAR":4.3333e-5,"MEAN_MOTION_DOT":3.64e-6,"MEAN_MOTION_DDOT":0},{"OBJECT_NAME":"STARLINK-1596","OBJECT_ID":"2020-057AA","EPOCH":"2023-02-02T03:30:55.589472","MEAN_MOTION":15.06395342,"ECCENTRICITY":0.0001731,"INCLINATION":53.0561,"RA_OF_ASC_NODE":316.306,"ARG_OF_PERICENTER":87.5746,"MEAN_ANOMALY":272.5441,"EPHEMERIS_TYPE":0,"CLASSIFICATION_TYPE":"U","NORAD_CAT_ID":46141,"ELEMENT_SET_NO":999,"REV_AT_EPOCH":13673,"BSTAR":-6.6207e-5,"MEAN_MOTION_DOT":-1.267e-5,"MEAN_MOTION_DDOT":0},{"OBJECT_NAME":"STARLINK-1597","OBJECT_ID":"2020-057AB","EPOCH":"2023-02-02T03:57:27.837792","MEAN_MOTION":15.06398739,"ECCENTRICITY":0.0001564,"INCLINATION":53.0534,"RA_OF_ASC_NODE":356.2367,"ARG_OF_PERICENTER":106.0682,"MEAN_ANOMALY":254.0479,"EPHEMERIS_TYPE":0,"CLASSIFICATION_TYPE":"U","NORAD_CAT_ID":46142,"ELEMENT_SET_NO":999,"REV_AT_EPOCH":13617,"BSTAR":9.1409e-5,"MEAN_MOTION_DOT":1.08e-5,"MEAN_MOTION_DDOT":0},{"OBJECT_NAME":"STARLINK-1606","OBJECT_ID":"2020-057AD","EPOCH":"2023-02-02T03:07:02.470080","MEAN_MOTION":15.06395575,"ECCENTRICITY":0.0001412,"INCLINATION":53.0559,"RA_OF_ASC_NODE":336.3877,"ARG_OF_PERICENTER":95.8599,"MEAN_ANOMALY":264.2551,"EPHEMERIS_TYPE":0,"CLASSIFICATION_TYPE":"U","NORAD_CAT_ID":46144,"ELEMENT_SET_NO":999,"REV_AT_EPOCH":13646,"BSTAR":-4.9718e-5,"MEAN_MOTION_DOT":-1.022e-5,"MEAN_MOTION_DDOT":0},{"OBJECT_NAME":"STARLINK-1608","OBJECT_ID":"2020-057AF","EPOCH":"2023-02-01T07:31:21.950400","MEAN_MOTION":15.06406398,"ECCENTRICITY":0.0001468,"INCLINATION":53.054,"RA_OF_ASC_NODE":0.0546,"ARG_OF_PERICENTER":94.0362,"MEAN_ANOMALY":266.0795,"EPHEMERIS_TYPE":0,"CLASSIFICATION_TYPE":"U","NORAD_CAT_ID":46146,"ELEMENT_SET_NO":999,"REV_AT_EPOCH":13539,"BSTAR":0.00015338,"MEAN_MOTION_DOT":2.004e-5,"MEAN_MOTION_DDOT":0},{"OBJECT_NAME":"STARLINK-1611","OBJECT_ID":"2020-057AG","EPOCH":"2023-02-02T03:46:50.939328","MEAN_MOTION":15.06399061,"ECCENTRICITY":0.0001893,"INCLINATION":53.0546,"RA_OF_ASC_NODE":356.264,"ARG_OF_PERICENTER":94.8815,"MEAN_ANOMALY":265.2391,"EPHEMERIS_TYPE":0,"CLASSIFICATION_TYPE":"U","NORAD_CAT_ID":46147,"ELEMENT_SET_NO":999,"REV_AT_EPOCH":13617,"BSTAR":9.2716e-5,"MEAN_MOTION_DOT":1.1e-5,"MEAN_MOTION_DDOT":0},{"OBJECT_NAME":"STARLINK-1616","OBJECT_ID":"2020-057AH","EPOCH":"2023-02-02T02:19:16.543200","MEAN_MOTION":15.06397722,"ECCENTRICITY":0.000103,"INCLINATION":53.053,"RA_OF_ASC_NODE":336.5417,"ARG_OF_PERICENTER":108.4123,"MEAN_ANOMALY":251.6978,"EPHEMERIS_TYPE":0,"CLASSIFICATION_TYPE":"U","NORAD_CAT_ID":46148,"ELEMENT_SET_NO":999,"REV_AT_EPOCH":13644,"BSTAR":0.00053297,"MEAN_MOTION_DOT":7.666e-5,"MEAN_MOTION_DDOT":0},{"OBJECT_NAME":"STARLINK-1620","OBJECT_ID":"2020-057AJ","EPOCH":"2023-02-01T18:41:26.718144","MEAN_MOTION":15.06397198,"ECCENTRICITY":0.000143,"INCLINATION":53.0516,"RA_OF_ASC_NODE":337.9578,"ARG_OF_PERICENTER":91.6989,"MEAN_ANOMALY":268.4164,"EPHEMERIS_TYPE":0,"CLASSIFICATION_TYPE":"U","NORAD_CAT_ID":46149,"ELEMENT_SET_NO":999,"REV_AT_EPOCH":13640,"BSTAR":0.00011491,"MEAN_MOTION_DOT":1.43e-5,"MEAN_MOTION_DDOT":0}]
